{
  "norad_id": 57894,
  "name": "STARLINK-30443",
  "history": [
    {
      "epoch": "2026-03-28T16:39:20.122560Z",
      "apogee_km": 485.04933853837065,
      "perigee_km": 482.5385580043994,
      "latitude_deg": 1.6550953779902615e-06,
      "longitude_deg": 130.85090115997937,
      "height_km": 483.89421855095674,
      "semi_major_axis_km": 6861.930948271385,
      "eccentricity": 0.00018295,
      "inclination_deg": 42.9987,
      "raan_deg": 206.7955,
      "arg_perigee_deg": 255.0699,
      "mean_anomaly_deg": 104.995,
      "mean_motion_rev_day": 15.27331282
    }
  ]
}